NORAD_CAT_ID,OBJECT_NAME,OBJECT_TYPE,EPOCH,MEAN_MOTION,ECCENTRICITY,INCLINATION,RA_OF_ASC_NODE,ARG_OF_PERICENTER,MEAN_ANOMALY,BSTAR,MEAN_MOTION_DOT,MEAN_MOTION_DDOT,TLE_LINE0,TLE_LINE1,TLE_LINE2,SEMIMAJOR_AXIS,PERIOD,APOGEE,PERIGEE,DECAYED
56801.0,STARLINK-6087,PAYLOAD,2024-02-16 10:03:33,14.98332977,0.0002738,69.9997,61.0772,269.3422,90.7423,8.8026e-06,1.2e-07,0.0,0 STARLINK-6087,1 56801U 23078AL  24047.41914236  .00000012  00000-0  88026-5 0  9999,2 56801  69.9997  61.0772 0002738 269.3422  90.7423 14.98332977 40497,6950.184,96.107,573.952,570.146,0.0
56801.0,STARLINK-6087,PAYLOAD,2024-02-17 03:41:02,14.98325873,0.0002776,69.9996,59.2254,271.1986,88.8855,5.2694e-06,-3e-07,0.0,0 STARLINK-6087,1 56801U 23078AL  24048.15350681 -.00000030  00000-0  52694-5 0  9992,2 56801  69.9996  59.2254 0002776 271.1986  88.8855 14.98325873 40863,6950.206,96.107,574.0,570.141,0.0
56801.0,STARLINK-6087,PAYLOAD,2024-02-17 10:05:35,14.98326073,0.0002839,69.9995,58.5509,271.3654,88.718,9.5056e-06,2e-07,0.0,0 STARLINK-6087,1 56801U 23078AL  24048.42054673  .00000020  00000-0  95056-5 0  9991,2 56801  69.9995  58.5509 0002839 271.3654  88.7180 14.98326073 40640,6950.205,96.107,574.043,570.097,0.0
56801.0,STARLINK-6087,PAYLOAD,2024-02-17 18:06:15,14.98328547,0.0002919,69.9996,57.7104,270.0395,90.043,-4.3717e-06,-1.45e-06,0.0,0 STARLINK-6087,1 56801U 23078AL  24048.75434567 -.00000145  00000-0 -43717-5 0  9998,2 56801  69.9996  57.7104 0002919 270.0395  90.0430 14.98328547 40697,6950.197,96.107,574.091,570.034,0.0
56801.0,STARLINK-6087,PAYLOAD,2024-02-18 03:43:03,14.98329718,0.0002842,69.9996,56.7,269.5163,90.567,1.9127e-06,-7e-07,0.0,0 STARLINK-6087,1 56801U 23078AL  24049.15490494 -.00000070  00000-0  19127-5 0  9998,2 56801  69.9996  56.7000 0002842 269.5163  90.5670 14.98329718 41011,6950.194,96.107,574.034,570.084,0.0
56801.0,STARLINK-6087,PAYLOAD,2024-02-18 10:07:35,14.98332704,0.0002841,69.9996,56.0255,266.8861,93.1973,5.0514e-06,-3.3e-07,0.0,0 STARLINK-6087,1 56801U 23078AL  24049.42194243 -.00000033  00000-0  50514-5 0  9995,2 56801  69.9996  56.0255 0002841 266.8861  93.1973 14.98332704 40798,6950.185,96.107,574.024,570.075,0.0
56801.0,STARLINK-6087,PAYLOAD,2024-02-18 18:08:16,14.98338628,0.0002947,69.9997,55.1842,267.5878,92.4944,-0.0001211,-1.538e-05,0.0,0 STARLINK-6087,1 56801U 23078AL  24049.75574079 -.00001538  00000-0 -12110-3 0  9990,2 56801  69.9997  55.1842 0002947 267.5878  92.4944 14.98338628 40841,6950.166,96.106,574.079,569.983,0.0
56801.0,STARLINK-6087,PAYLOAD,2024-02-19 03:45:04,14.98330531,0.0002894,69.9996,54.1742,267.4356,92.6472,2.1015e-05,1.58e-06,0.0,0 STARLINK-6087,1 56801U 23078AL  24050.15630265  .00000158  00000-0  21015-4 0  9996,2 56801  69.9996  54.1742 0002894 267.4356  92.6472 14.98330531 41168,6950.191,96.107,574.068,570.045,0.0
56801.0,STARLINK-6087,PAYLOAD,2024-02-19 10:09:36,14.98332202,0.0002937,69.9997,53.5017,269.2013,90.8809,3.4871e-05,3.23e-06,0.0,0 STARLINK-6087,1 56801U 23078AL  24050.42334102  .00000323  00000-0  34871-4 0  9995,2 56801  69.9997  53.5017 0002937 269.2013  90.8809 14.98332202 40941,6950.186,96.107,574.092,570.01,0.0
56801.0,STARLINK-6087,PAYLOAD,2024-02-20 03:47:05,14.98327736,0.0002903,69.9998,51.6501,269.1362,90.9464,-2.3949e-05,-3.79e-06,0.0,0 STARLINK-6087,1 56801U 23078AL  24051.15770544 -.00000379  00000-0 -23949-4 0  9997,2 56801  69.9998  51.6501 0002903 269.1362  90.9464 14.98327736 41314,6950.2,96.107,574.083,570.047,0.0
56801.0,STARLINK-6087,PAYLOAD,2024-02-20 10:11:38,14.98327447,0.000284,70.0001,50.977,268.7254,91.358,-2.1159e-05,-3.45e-06,0.0,0 STARLINK-6087,1 56801U 23078AL  24051.42474587 -.00000345  00000-0 -21159-4 0  9999,2 56801  70.0001  50.9770 0002840 268.7254  91.3580 14.98327447 41095,6950.201,96.107,574.04,570.092,0.0
56801.0,STARLINK-6087,PAYLOAD,2024-02-20 16:36:10,14.98332888,0.0002882,70.0001,50.3036,269.3426,90.7403,-7.4034e-05,-9.76e-06,0.0,0 STARLINK-6087,1 56801U 23078AL  24051.69178359 -.00000976  00000-0 -74034-4 0  9996,2 56801  70.0001  50.3036 0002882 269.3426  90.7403 14.98332888 41135,6950.184,96.107,574.052,570.046,0.0
56801.0,STARLINK-6087,PAYLOAD,2024-02-21 03:49:06,14.98331915,0.0002912,69.9999,49.1253,270.5733,89.5092,1.6442e-05,1.03e-06,0.0,0 STARLINK-6087,1 56801U 23078AL  24052.15910136  .00000103  00000-0  16442-4 0  9994,2 56801  69.9999  49.1253 0002912 270.5733  89.5092 14.98331915 41460,6950.187,96.107,574.076,570.028,0.0
56801.0,STARLINK-6087,PAYLOAD,2024-02-21 08:37:30,14.98328576,0.0002564,69.9999,48.6204,267.4725,92.6141,0.00010484,1.158e-05,0.0,0 STARLINK-6087,1 56801U 23078AL  24052.35938115  .00001158  00000-0  10484-3 0  9993,2 56801  69.9999  48.6204 0002564 267.4725  92.6141 14.98328576 41233,6950.197,96.107,573.844,570.28,0.0
56801.0,STARLINK-6087,PAYLOAD,2024-02-21 16:38:10,14.9833099,0.0002796,70.0003,47.7791,267.3549,92.729,1.3966e-05,7.4e-07,0.0,0 STARLINK-6087,1 56801U 23078AL  24052.69318106  .00000074  00000-0  13966-4 0  9997,2 56801  70.0003  47.7791 0002796 267.3549  92.7290 14.98330990 41287,6950.19,96.107,573.998,570.112,0.0
56801.0,STARLINK-6087,PAYLOAD,2024-02-22 03:51:07,14.98327845,0.0002859,70.0002,46.6011,265.4521,94.6312,1.6551e-05,1.05e-06,0.0,0 STARLINK-6087,1 56801U 23078AL  24053.16050248  .00000105  00000-0  16551-4 0  9998,2 56801  70.0002  46.6011 0002859 265.4521  94.6312 14.98327845 41616,6950.2,96.107,574.052,570.077,0.0
56801.0,STARLINK-6087,PAYLOAD,2024-02-22 10:15:39,14.98328657,0.0002753,70.0004,45.9274,264.8305,95.254,2.9392e-05,2.58e-06,0.0,0 STARLINK-6087,1 56801U 23078AL  24053.42754200  .00000258  00000-0  29392-4 0  9992,2 56801  70.0004  45.9274 0002753 264.8305  95.2540 14.98328657 41394,6950.197,96.107,573.975,570.149,0.0
56801.0,STARLINK-6087,PAYLOAD,2024-02-23 03:53:08,14.98330928,0.0002822,70.0004,44.0758,265.7855,94.2981,-3.2391e-05,-4.79e-06,0.0,0 STARLINK-6087,1 56801U 23078AL  24054.16190158 -.00000479  00000-0 -32391-4 0  9990,2 56801  70.0004  44.0758 0002822 265.7855  94.2981 14.98330928 41761,6950.19,96.107,574.016,570.094,0.0
56801.0,STARLINK-6087,PAYLOAD,2024-02-23 08:41:32,14.98330303,0.0002701,70.0005,43.5705,259.974,100.1114,8.9777e-06,1.4e-07,0.0,0 STARLINK-6087,1 56801U 23078AL  24054.36218050  .00000014  00000-0  89777-5 0  9998,2 56801  70.0005  43.5705 0002701 259.9740 100.1114 14.98330303 41539,6950.192,96.107,573.934,570.18,0.0
56801.0,STARLINK-6087,PAYLOAD,2024-02-23 23:06:45,14.98325677,0.0002986,70.0,42.0551,267.8314,92.2503,-1.4284e-05,-2.63e-06,0.0,0 STARLINK-6087,1 56801U 23078AL  24054.96302349 -.00000263  00000-0 -14284-4 0  9997,2 56801  70.0000  42.0551 0002986 267.8314  92.2503 14.98325677 41628,6950.206,96.107,574.147,569.996,0.0
56801.0,STARLINK-6087,PAYLOAD,2024-02-24 03:55:09,14.98325967,0.0003037,70.0,41.5497,268.2573,91.8238,6.365e-06,-1.7e-07,0.0,0 STARLINK-6087,1 56801U 23078AL  24055.16330295 -.00000017  00000-0  63650-5 0  9999,2 56801  70.0000  41.5497 0003037 268.2573  91.8238 14.98325967 41915,6950.205,96.107,574.181,569.96,0.0
56801.0,STARLINK-6087,PAYLOAD,2024-02-24 08:43:33,14.98328662,0.0003014,70.0003,41.0451,268.6423,91.4391,2.2733e-05,1.78e-06,0.0,0 STARLINK-6087,1 56801U 23078AL  24055.36358108  .00000178  00000-0  22733-4 0  9997,2 56801  70.0003  41.0451 0003014 268.6423  91.4391 14.98328662 41681,6950.197,96.107,574.157,569.967,0.0
56801.0,STARLINK-6087,PAYLOAD,2024-02-24 23:08:46,14.98329679,0.0002996,70.0003,39.5303,269.7796,90.3019,-2.389e-05,-3.78e-06,0.0,0 STARLINK-6087,1 56801U 23078AL  24055.96442191 -.00000378  00000-0 -23890-4 0  9998,2 56801  70.0003  39.5303 0002996 269.7796  90.3019 14.98329679 41776,6950.194,96.107,574.141,569.977,0.0
56801.0,STARLINK-6087,PAYLOAD,2024-02-25 03:57:10,14.98328484,0.0002875,70.0006,39.0251,266.5351,93.5479,3.6513e-05,3.43e-06,0.0,0 STARLINK-6087,1 56801U 23078AL  24056.16470077  .00000343  00000-0  36513-4 0  9991,2 56801  70.0006  39.0251 0002875 266.5351  93.5479 14.98328484 42065,6950.198,96.107,574.061,570.064,0.0
56801.0,STARLINK-6087,PAYLOAD,2024-02-25 08:45:34,14.98325803,0.0002825,70.0007,38.5207,266.8591,93.2245,0.00017854,2.038e-05,0.0,0 STARLINK-6087,1 56801U 23078AL  24056.36497875  .00002038  00000-0  17854-3 0  9997,2 56801  70.0007  38.5207 0002825 266.8591  93.2245 14.98325803 41839,6950.206,96.107,574.034,570.107,0.0
56801.0,STARLINK-6087,PAYLOAD,2024-02-25 23:10:46,14.98330878,0.0002933,70.0008,37.0058,271.0307,89.0515,4.0553e-05,3.91e-06,0.0,0 STARLINK-6087,1 56801U 23078AL  24056.96581806  .00000391  00000-0  40553-4 0  9994,2 56801  70.0008  37.0058 0002933 271.0307  89.0515 14.98330878 41922,6950.19,96.107,574.094,570.017,0.0
56801.0,STARLINK-6087,PAYLOAD,2024-02-26 03:59:10,14.98329451,0.0002986,70.0011,36.5009,271.1822,88.8995,7.0664e-05,7.5e-06,0.0,0 STARLINK-6087,1 56801U 23078AL  24057.16609788  .00000750  00000-0  70664-4 0  9992,2 56801  70.0011  36.5009 0002986 271.1822  88.8995 14.98329451 42214,6950.195,96.107,574.135,569.984,0.0
56801.0,STARLINK-6087,PAYLOAD,2024-02-26 08:47:34,14.98336427,0.0002747,70.0011,35.9959,268.0614,92.023,4.7453e-05,4.73e-06,0.0,0 STARLINK-6087,1 56801U 23078AL  24057.36637359  .00000473  00000-0  47453-4 0  9991,2 56801  70.0011  35.9959 0002747 268.0614  92.0230 14.98336427 41983,6950.173,96.107,573.947,570.129,0.0
56801.0,STARLINK-6087,PAYLOAD,2024-02-26 21:36:39,14.98321831,0.0002936,70.0019,34.6512,265.6213,94.461,8.7607e-05,9.52e-06,0.0,0 STARLINK-6087,1 56801U 23078AL  24057.90046006  .00000952  00000-0  87607-4 0  9991,2 56801  70.0019  34.6512 0002936 265.6213  94.4610 14.98321831 42061,6950.218,96.108,574.124,570.043,0.0
56801.0,STARLINK-6087,PAYLOAD,2024-02-27 04:01:12,14.98320814,0.0002848,70.0018,33.9775,263.7576,96.3259,2.8808e-05,2.51e-06,0.0,0 STARLINK-6087,1 56801U 23078AL  24058.16750356  .00000251  00000-0  28808-4 0  9990,2 56801  70.0018  33.9775 0002848 263.7576  96.3259 14.98320814 42369,6950.221,96.108,574.066,570.107,0.0
